RADUGA 11 [-]           
1 13669U 82113A   17344.85371782 -.00000187  00000-0  00000-0 0  9997
2 13669  14.6728 338.4565 0040894 215.4521 333.4492  0.97709576 91147
